<?xml version="1.0" encoding="UTF-8"?>
<ndm xmlns:xsi="http://www.w3.org/2001/XMLSchema-instance" xsi:noNamespaceSchemaLocation="https://sanaregistry.org/r/ndmxml_unqualified/ndmxml-2.0.0-master-2.0.xsd">
<omm id="CCSDS_OMM_VERS" version="2.0">
<header><CREATION_DATE/><ORIGINATOR/></header><body><segment><metadata><OBJECT_NAME>ONEWEB-0363</OBJECT_NAME><OBJECT_ID>2021-090L</OBJECT_ID><CENTER_NAME>EARTH</CENTER_NAME><REF_FRAME>TEME</REF_FRAME><TIME_SYSTEM>UTC</TIME_SYSTEM><MEAN_ELEMENT_THEORY>SGP4</MEAN_ELEMENT_THEORY></metadata><data><meanElements><EPOCH>2025-11-04T00:22:14.124000</EPOCH><MEAN_MOTION>13.20771209</MEAN_MOTION><ECCENTRICITY>.0001495</ECCENTRICITY><INCLINATION>87.9183</INCLINATION><RA_OF_ASC_NODE>319.3452</RA_OF_ASC_NODE><ARG_OF_PERICENTER>92.4370</ARG_OF_PERICENTER><MEAN_ANOMALY>267.6935</MEAN_ANOMALY></meanElements><tleParameters><EPHEMERIS_TYPE>0</EPHEMERIS_TYPE><CLASSIFICATION_TYPE>U</CLASSIFICATION_TYPE><NORAD_CAT_ID>49289</NORAD_CAT_ID><ELEMENT_SET_NO>999</ELEMENT_SET_NO><REV_AT_EPOCH>20058</REV_AT_EPOCH><BSTAR>.25468E-4</BSTAR><MEAN_MOTION_DOT>.23E-6</MEAN_MOTION_DOT><MEAN_MOTION_DDOT>0</MEAN_MOTION_DDOT></tleParameters></data></segment></body></omm>
<omm id="CCSDS_OMM_VERS" version="2.0">
<header><CREATION_DATE/><ORIGINATOR/></header><body><segment><metadata><OBJECT_NAME>ONEWEB-0364</OBJECT_NAME><OBJECT_ID>2021-090M</OBJECT_ID><CENTER_NAME>EARTH</CENTER_NAME><REF_FRAME>TEME</REF_FRAME><TIME_SYSTEM>UTC</TIME_SYSTEM><MEAN_ELEMENT_THEORY>SGP4</MEAN_ELEMENT_THEORY></metadata><data><meanElements><EPOCH>2025-11-04T03:05:54.450816</EPOCH><MEAN_MOTION>13.20772984</MEAN_MOTION><ECCENTRICITY>.0001703</ECCENTRICITY><INCLINATION>87.9182</INCLINATION><RA_OF_ASC_NODE>319.3480</RA_OF_ASC_NODE><ARG_OF_PERICENTER>93.1484</ARG_OF_PERICENTER><MEAN_ANOMALY>266.9844</MEAN_ANOMALY></meanElements><tleParameters><EPHEMERIS_TYPE>0</EPHEMERIS_TYPE><CLASSIFICATION_TYPE>U</CLASSIFICATION_TYPE><NORAD_CAT_ID>49290</NORAD_CAT_ID><ELEMENT_SET_NO>999</ELEMENT_SET_NO><REV_AT_EPOCH>20173</REV_AT_EPOCH><BSTAR>-.56442E-4</BSTAR><MEAN_MOTION_DOT>-.1E-6</MEAN_MOTION_DOT><MEAN_MOTION_DDOT>0</MEAN_MOTION_DDOT></tleParameters></data></segment></body></omm>
<omm id="CCSDS_OMM_VERS" version="2.0">
<header><CREATION_DATE/><ORIGINATOR/></header><body><segment><metadata><OBJECT_NAME>ONEWEB-0365</OBJECT_NAME><OBJECT_ID>2021-090N</OBJECT_ID><CENTER_NAME>EARTH</CENTER_NAME><REF_FRAME>TEME</REF_FRAME><TIME_SYSTEM>UTC</TIME_SYSTEM><MEAN_ELEMENT_THEORY>SGP4</MEAN_ELEMENT_THEORY></metadata><data><meanElements><EPOCH>2025-11-04T03:53:57.313824</EPOCH><MEAN_MOTION>13.19726668</MEAN_MOTION><ECCENTRICITY>.000201</ECCENTRICITY><INCLINATION>87.9237</INCLINATION><RA_OF_ASC_NODE>349.7209</RA_OF_ASC_NODE><ARG_OF_PERICENTER>98.2842</ARG_OF_PERICENTER><MEAN_ANOMALY>261.8518</MEAN_ANOMALY></meanElements><tleParameters><EPHEMERIS_TYPE>0</EPHEMERIS_TYPE><CLASSIFICATION_TYPE>U</CLASSIFICATION_TYPE><NORAD_CAT_ID>49291</NORAD_CAT_ID><ELEMENT_SET_NO>999</ELEMENT_SET_NO><REV_AT_EPOCH>19674</REV_AT_EPOCH><BSTAR>.15296E-3</BSTAR><MEAN_MOTION_DOT>.74E-6</MEAN_MOTION_DOT><MEAN_MOTION_DDOT>0</MEAN_MOTION_DDOT></tleParameters></data></segment></body></omm>
<omm id="CCSDS_OMM_VERS" version="2.0">
<header><CREATION_DATE/><ORIGINATOR/></header><body><segment><metadata><OBJECT_NAME>ONEWEB-0366</OBJECT_NAME><OBJECT_ID>2021-090P</OBJECT_ID><CENTER_NAME>EARTH</CENTER_NAME><REF_FRAME>TEME</REF_FRAME><TIME_SYSTEM>UTC</TIME_SYSTEM><MEAN_ELEMENT_THEORY>SGP4</MEAN_ELEMENT_THEORY></metadata><data><meanElements><EPOCH>2025-11-04T03:03:14.126112</EPOCH><MEAN_MOTION>13.14503927</MEAN_MOTION><ECCENTRICITY>.0001817</ECCENTRICITY><INCLINATION>87.8998</INCLINATION><RA_OF_ASC_NODE>334.5588</RA_OF_ASC_NODE><ARG_OF_PERICENTER>93.8976</ARG_OF_PERICENTER><MEAN_ANOMALY>266.2361</MEAN_ANOMALY></meanElements><tleParameters><EPHEMERIS_TYPE>0</EPHEMERIS_TYPE><CLASSIFICATION_TYPE>U</CLASSIFICATION_TYPE><NORAD_CAT_ID>49292</NORAD_CAT_ID><ELEMENT_SET_NO>999</ELEMENT_SET_NO><REV_AT_EPOCH>19799</REV_AT_EPOCH><BSTAR>.76393E-4</BSTAR><MEAN_MOTION_DOT>.41E-6</MEAN_MOTION_DOT><MEAN_MOTION_DDOT>0</MEAN_MOTION_DDOT></tleParameters></data></segment></body></omm>
<omm id="CCSDS_OMM_VERS" version="2.0">
<header><CREATION_DATE/><ORIGINATOR/></header><body><segment><metadata><OBJECT_NAME>ONEWEB-0367</OBJECT_NAME><OBJECT_ID>2021-090Q</OBJECT_ID><CENTER_NAME>EARTH</CENTER_NAME><REF_FRAME>TEME</REF_FRAME><TIME_SYSTEM>UTC</TIME_SYSTEM><MEAN_ELEMENT_THEORY>SGP4</MEAN_ELEMENT_THEORY></metadata><data><meanElements><EPOCH>2025-11-04T00:19:59.378016</EPOCH><MEAN_MOTION>13.20771817</MEAN_MOTION><ECCENTRICITY>.0002055</ECCENTRICITY><INCLINATION>87.9189</INCLINATION><RA_OF_ASC_NODE>319.3426</RA_OF_ASC_NODE><ARG_OF_PERICENTER>91.4166</ARG_OF_PERICENTER><MEAN_ANOMALY>268.7203</MEAN_ANOMALY></meanElements><tleParameters><EPHEMERIS_TYPE>0</EPHEMERIS_TYPE><CLASSIFICATION_TYPE>U</CLASSIFICATION_TYPE><NORAD_CAT_ID>49293</NORAD_CAT_ID><ELEMENT_SET_NO>999</ELEMENT_SET_NO><REV_AT_EPOCH>20010</REV_AT_EPOCH><BSTAR>.20569E-3</BSTAR><MEAN_MOTION_DOT>.97E-6</MEAN_MOTION_DOT><MEAN_MOTION_DDOT>0</MEAN_MOTION_DDOT></tleParameters></data></segment></body></omm>
<omm id="CCSDS_OMM_VERS" version="2.0">
<header><CREATION_DATE/><ORIGINATOR/></header><body><segment><metadata><OBJECT_NAME>ONEWEB-0368</OBJECT_NAME><OBJECT_ID>2021-090R</OBJECT_ID><CENTER_NAME>EARTH</CENTER_NAME><REF_FRAME>TEME</REF_FRAME><TIME_SYSTEM>UTC</TIME_SYSTEM><MEAN_ELEMENT_THEORY>SGP4</MEAN_ELEMENT_THEORY></metadata><data><meanElements><EPOCH>2025-11-04T01:30:26.673408</EPOCH><MEAN_MOTION>13.20771771</MEAN_MOTION><ECCENTRICITY>.0001691</ECCENTRICITY><INCLINATION>87.9185</INCLINATION><RA_OF_ASC_NODE>319.3666</RA_OF_ASC_NODE><ARG_OF_PERICENTER>118.2383</ARG_OF_PERICENTER><MEAN_ANOMALY>241.8921</MEAN_ANOMALY></meanElements><tleParameters><EPHEMERIS_TYPE>0</EPHEMERIS_TYPE><CLASSIFICATION_TYPE>U</CLASSIFICATION_TYPE><NORAD_CAT_ID>49294</NORAD_CAT_ID><ELEMENT_SET_NO>999</ELEMENT_SET_NO><REV_AT_EPOCH>20126</REV_AT_EPOCH><BSTAR>.15977E-3</BSTAR><MEAN_MOTION_DOT>.78E-6</MEAN_MOTION_DOT><MEAN_MOTION_DDOT>0</MEAN_MOTION_DDOT></tleParameters></data></segment></body></omm>
<omm id="CCSDS_OMM_VERS" version="2.0">
<header><CREATION_DATE/><ORIGINATOR/></header><body><segment><metadata><OBJECT_NAME>ONEWEB-0369</OBJECT_NAME><OBJECT_ID>2021-090S</OBJECT_ID><CENTER_NAME>EARTH</CENTER_NAME><REF_FRAME>TEME</REF_FRAME><TIME_SYSTEM>UTC</TIME_SYSTEM><MEAN_ELEMENT_THEORY>SGP4</MEAN_ELEMENT_THEORY></metadata><data><meanElements><EPOCH>2025-11-04T03:47:08.037024</EPOCH><MEAN_MOTION>13.19725211</MEAN_MOTION><ECCENTRICITY>.0001915</ECCENTRICITY><INCLINATION>87.9237</INCLINATION><RA_OF_ASC_NODE>349.7524</RA_OF_ASC_NODE><ARG_OF_PERICENTER>98.5092</ARG_OF_PERICENTER><MEAN_ANOMALY>261.6258</MEAN_ANOMALY></meanElements><tleParameters><EPHEMERIS_TYPE>0</EPHEMERIS_TYPE><CLASSIFICATION_TYPE>U</CLASSIFICATION_TYPE><NORAD_CAT_ID>49295</NORAD_CAT_ID><ELEMENT_SET_NO>999</ELEMENT_SET_NO><REV_AT_EPOCH>19673</REV_AT_EPOCH><BSTAR>.15654E-3</BSTAR><MEAN_MOTION_DOT>.76E-6</MEAN_MOTION_DOT><MEAN_MOTION_DDOT>0</MEAN_MOTION_DDOT></tleParameters></data></segment></body></omm>
<omm id="CCSDS_OMM_VERS" version="2.0">
<header><CREATION_DATE/><ORIGINATOR/></header><body><segment><metadata><OBJECT_NAME>ONEWEB-0370</OBJECT_NAME><OBJECT_ID>2021-090T</OBJECT_ID><CENTER_NAME>EARTH</CENTER_NAME><REF_FRAME>TEME</REF_FRAME><TIME_SYSTEM>UTC</TIME_SYSTEM><MEAN_ELEMENT_THEORY>SGP4</MEAN_ELEMENT_THEORY></metadata><data><meanElements><EPOCH>2025-11-04T02:22:43.027104</EPOCH><MEAN_MOTION>13.20771815</MEAN_MOTION><ECCENTRICITY>.0002083</ECCENTRICITY><INCLINATION>87.9185</INCLINATION><RA_OF_ASC_NODE>319.3336</RA_OF_ASC_NODE><ARG_OF_PERICENTER>84.8149</ARG_OF_PERICENTER><MEAN_ANOMALY>275.3222</MEAN_ANOMALY></meanElements><tleParameters><EPHEMERIS_TYPE>0</EPHEMERIS_TYPE><CLASSIFICATION_TYPE>U</CLASSIFICATION_TYPE><NORAD_CAT_ID>49296</NORAD_CAT_ID><ELEMENT_SET_NO>999</ELEMENT_SET_NO><REV_AT_EPOCH>20015</REV_AT_EPOCH><BSTAR>.68176E-4</BSTAR><MEAN_MOTION_DOT>.41E-6</MEAN_MOTION_DOT><MEAN_MOTION_DDOT>0</MEAN_MOTION_DDOT></tleParameters></data></segment></body></omm>

</ndm>
