ONEWEB-0363             
1 49289U 21090L   25308.01544125  .00000023  00000+0  25468-4 0  9997
2 49289  87.9183 319.3452 0001495  92.4370 267.6935 13.20771209200586
ONEWEB-0364             
1 49290U 21090M   25308.12910244 -.00000010  00000+0 -56442-4 0  9994
2 49290  87.9182 319.3480 0001703  93.1484 266.9844 13.20772984201734
ONEWEB-0365             
1 49291U 21090N   25308.16246891  .00000074  00000+0  15296-3 0  9998
2 49291  87.9237 349.7209 0002010  98.2842 261.8518 13.19726668196740
ONEWEB-0366             
1 49292U 21090P   25308.12724683  .00000041  00000+0  76393-4 0  9995
2 49292  87.8998 334.5588 0001817  93.8976 266.2361 13.14503927197998
ONEWEB-0367             
1 49293U 21090Q   25308.01388169  .00000097  00000+0  20569-3 0  9993
2 49293  87.9189 319.3426 0002055  91.4166 268.7203 13.20771817200106
ONEWEB-0368             
1 49294U 21090R   25308.06280872  .00000078  00000+0  15977-3 0  9997
2 49294  87.9185 319.3666 0001691 118.2383 241.8921 13.20771771201269
ONEWEB-0369             
1 49295U 21090S   25308.15773191  .00000076  00000+0  15654-3 0  9999
2 49295  87.9237 349.7524 0001915  98.5092 261.6258 13.19725211196738
ONEWEB-0370             
1 49296U 21090T   25308.09910911  .00000041  00000+0  68176-4 0  9996
2 49296  87.9185 319.3336 0002083  84.8149 275.3222 13.20771815200151
